COSMOS 2251 DEB         
1 37959U 93036BPJ 17345.82382096  .00000364  00000-0  10728-3 0  9996
2 37959  74.0125 143.4595 0071913 273.2382 155.0880 14.45923668380560
